CCSDS_OMM_VERS = 2.0
CREATION_DATE  = 
ORIGINATOR     = 

OBJECT_NAME    = TITAN 4B R/B
OBJECT_ID      = 2000-047B
CENTER_NAME    = EARTH
REF_FRAME      = TEME
TIME_SYSTEM    = UTC
MEAN_ELEMENT_THEORY = SGP/SGP4

EPOCH          = 2026-03-31T11:51:15.285888
MEAN_MOTION    = 15.09765497
ECCENTRICITY   = .00399738
INCLINATION    = 67.9911
RA_OF_ASC_NODE = 339.1911
ARG_OF_PERICENTER = 9.8175
MEAN_ANOMALY   = 350.3746

EPHEMERIS_TYPE = 0
CLASSIFICATION_TYPE = U
NORAD_CAT_ID   = 26474
ELEMENT_SET_NO = 999
REV_AT_EPOCH   = 39620
BSTAR          = .31149552E-3
MEAN_MOTION_DOT = .5001E-4
MEAN_MOTION_DDOT = 0

CCSDS_OMM_VERS = 2.0
CREATION_DATE  = 
ORIGINATOR     = 

OBJECT_NAME    = ENVISAT
OBJECT_ID      = 2002-009A
CENTER_NAME    = EARTH
REF_FRAME      = TEME
TIME_SYSTEM    = UTC
MEAN_ELEMENT_THEORY = SGP/SGP4

EPOCH          = 2026-03-31T14:31:52.709088
MEAN_MOTION    = 14.39044707
ECCENTRICITY   = .00012187
INCLINATION    = 98.3765
RA_OF_ASC_NODE = 43.6859
ARG_OF_PERICENTER = 82.2034
MEAN_ANOMALY   = 91.0631

EPHEMERIS_TYPE = 0
CLASSIFICATION_TYPE = U
NORAD_CAT_ID   = 27386
ELEMENT_SET_NO = 999
REV_AT_EPOCH   = 26232
BSTAR          = .67413592E-4
MEAN_MOTION_DOT = .165E-5
MEAN_MOTION_DDOT = 0

CCSDS_OMM_VERS = 2.0
CREATION_DATE  = 
ORIGINATOR     = 

OBJECT_NAME    = IDEFIX & ARIANE 42P R/B
OBJECT_ID      = 2002-021B
CENTER_NAME    = EARTH
REF_FRAME      = TEME
TIME_SYSTEM    = UTC
MEAN_ELEMENT_THEORY = SGP/SGP4

EPOCH          = 2026-03-31T07:27:31.335840
MEAN_MOTION    = 14.31040888
ECCENTRICITY   = .00127126
INCLINATION    = 98.5896
RA_OF_ASC_NODE = 28.6619
ARG_OF_PERICENTER = 120.6982
MEAN_ANOMALY   = 239.5455

EPHEMERIS_TYPE = 0
CLASSIFICATION_TYPE = U
NORAD_CAT_ID   = 27422
ELEMENT_SET_NO = 999
REV_AT_EPOCH   = 24711
BSTAR          = .14673282E-3
MEAN_MOTION_DOT = .343E-5
MEAN_MOTION_DDOT = 0

CCSDS_OMM_VERS = 2.0
CREATION_DATE  = 
ORIGINATOR     = 

OBJECT_NAME    = AQUA
OBJECT_ID      = 2002-022A
CENTER_NAME    = EARTH
REF_FRAME      = TEME
TIME_SYSTEM    = UTC
MEAN_ELEMENT_THEORY = SGP/SGP4

EPOCH          = 2026-03-31T14:19:23.856096
MEAN_MOTION    = 14.62028183
ECCENTRICITY   = .00012424
INCLINATION    = 98.4211
RA_OF_ASC_NODE = 58.3670
ARG_OF_PERICENTER = 116.9548
MEAN_ANOMALY   = 4.7387

EPHEMERIS_TYPE = 0
CLASSIFICATION_TYPE = U
NORAD_CAT_ID   = 27424
ELEMENT_SET_NO = 999
REV_AT_EPOCH   = 27193
BSTAR          = .28561306E-3
MEAN_MOTION_DOT = .1384E-4
MEAN_MOTION_DDOT = 0

CCSDS_OMM_VERS = 2.0
CREATION_DATE  = 
ORIGINATOR     = 

OBJECT_NAME    = CZ-4B R/B
OBJECT_ID      = 2002-024C
CENTER_NAME    = EARTH
REF_FRAME      = TEME
TIME_SYSTEM    = UTC
MEAN_ELEMENT_THEORY = SGP/SGP4

EPOCH          = 2026-03-31T14:18:04.655808
MEAN_MOTION    = 14.14551566
ECCENTRICITY   = .00493968
INCLINATION    = 98.8791
RA_OF_ASC_NODE = 143.8876
ARG_OF_PERICENTER = 321.7476
MEAN_ANOMALY   = 202.7096

EPHEMERIS_TYPE = 0
CLASSIFICATION_TYPE = U
NORAD_CAT_ID   = 27432
ELEMENT_SET_NO = 999
REV_AT_EPOCH   = 23233
BSTAR          = .54688081E-4
MEAN_MOTION_DOT = .61E-6
MEAN_MOTION_DDOT = 0

CCSDS_OMM_VERS = 2.0
CREATION_DATE  = 
ORIGINATOR     = 

OBJECT_NAME    = MIDORI II (ADEOS-II)
OBJECT_ID      = 2002-056A
CENTER_NAME    = EARTH
REF_FRAME      = TEME
TIME_SYSTEM    = UTC
MEAN_ELEMENT_THEORY = SGP/SGP4

EPOCH          = 2026-03-31T08:45:39.916512
MEAN_MOTION    = 14.29301765
ECCENTRICITY   = .00006068
INCLINATION    = 98.7806
RA_OF_ASC_NODE = 48.9976
ARG_OF_PERICENTER = 20.0869
MEAN_ANOMALY   = 340.0336

EPHEMERIS_TYPE = 0
CLASSIFICATION_TYPE = U
NORAD_CAT_ID   = 27597
ELEMENT_SET_NO = 999
REV_AT_EPOCH   = 21339
BSTAR          = .17776772E-3
MEAN_MOTION_DOT = .407E-5
MEAN_MOTION_DDOT = 0

CCSDS_OMM_VERS = 2.0
CREATION_DATE  = 
ORIGINATOR     = 

OBJECT_NAME    = H-2A R/B
OBJECT_ID      = 2002-056E
CENTER_NAME    = EARTH
REF_FRAME      = TEME
TIME_SYSTEM    = UTC
MEAN_ELEMENT_THEORY = SGP/SGP4

EPOCH          = 2026-03-31T08:36:48.437280
MEAN_MOTION    = 14.33775755
ECCENTRICITY   = .0071406
INCLINATION    = 98.3240
RA_OF_ASC_NODE = 49.9044
ARG_OF_PERICENTER = 96.8805
MEAN_ANOMALY   = 55.6724

EPHEMERIS_TYPE = 0
CLASSIFICATION_TYPE = U
NORAD_CAT_ID   = 27601
ELEMENT_SET_NO = 999
REV_AT_EPOCH   = 21721
BSTAR          = .15814E-3
MEAN_MOTION_DOT = .411E-5
MEAN_MOTION_DDOT = 0

CCSDS_OMM_VERS = 2.0
CREATION_DATE  = 
ORIGINATOR     = 

OBJECT_NAME    = CZ-4B R/B
OBJECT_ID      = 2003-049C
CENTER_NAME    = EARTH
REF_FRAME      = TEME
TIME_SYSTEM    = UTC
MEAN_ELEMENT_THEORY = SGP/SGP4

EPOCH          = 2026-03-31T10:59:21.690816
MEAN_MOTION    = 14.55040093
ECCENTRICITY   = .00484398
INCLINATION    = 98.6894
RA_OF_ASC_NODE = 86.2199
ARG_OF_PERICENTER = 163.9696
MEAN_ANOMALY   = 196.3046

EPHEMERIS_TYPE = 0
CLASSIFICATION_TYPE = U
NORAD_CAT_ID   = 28059
ELEMENT_SET_NO = 999
REV_AT_EPOCH   = 18976
BSTAR          = .12307925E-3
MEAN_MOTION_DOT = .487E-5
MEAN_MOTION_DDOT = 0

CCSDS_OMM_VERS = 2.0
CREATION_DATE  = 
ORIGINATOR     = 

OBJECT_NAME    = CZ-2C R/B
OBJECT_ID      = 2004-012C
CENTER_NAME    = EARTH
REF_FRAME      = TEME
TIME_SYSTEM    = UTC
MEAN_ELEMENT_THEORY = SGP/SGP4

EPOCH          = 2026-03-31T03:29:59.913312
MEAN_MOTION    = 15.67204291
ECCENTRICITY   = .00134436
INCLINATION    = 97.7178
RA_OF_ASC_NODE = 157.5086
ARG_OF_PERICENTER = 224.2126
MEAN_ANOMALY   = 135.8060

EPHEMERIS_TYPE = 0
CLASSIFICATION_TYPE = U
NORAD_CAT_ID   = 28222
ELEMENT_SET_NO = 999
REV_AT_EPOCH   = 20763
BSTAR          = .73084359E-3
MEAN_MOTION_DOT = .79102E-3
MEAN_MOTION_DDOT = 0

CCSDS_OMM_VERS = 2.0
CREATION_DATE  = 
ORIGINATOR     = 

OBJECT_NAME    = SL-16 R/B
OBJECT_ID      = 2004-021B
CENTER_NAME    = EARTH
REF_FRAME      = TEME
TIME_SYSTEM    = UTC
MEAN_ELEMENT_THEORY = SGP/SGP4

EPOCH          = 2026-03-31T12:27:53.669088
MEAN_MOTION    = 14.14596697
ECCENTRICITY   = .00051324
INCLINATION    = 71.0010
RA_OF_ASC_NODE = 186.6824
ARG_OF_PERICENTER = 342.7540
MEAN_ANOMALY   = 17.3407

EPHEMERIS_TYPE = 0
CLASSIFICATION_TYPE = U
NORAD_CAT_ID   = 28353
ELEMENT_SET_NO = 999
REV_AT_EPOCH   = 12592
BSTAR          = .18689917E-3
MEAN_MOTION_DOT = .312E-5
MEAN_MOTION_DDOT = 0

CCSDS_OMM_VERS = 2.0
CREATION_DATE  = 
ORIGINATOR     = 

OBJECT_NAME    = CZ-4B R/B
OBJECT_ID      = 2004-035C
CENTER_NAME    = EARTH
REF_FRAME      = TEME
TIME_SYSTEM    = UTC
MEAN_ELEMENT_THEORY = SGP/SGP4

EPOCH          = 2026-03-31T13:37:29.371584
MEAN_MOTION    = 15.29449768
ECCENTRICITY   = .00301014
INCLINATION    = 97.3461
RA_OF_ASC_NODE = 124.5493
ARG_OF_PERICENTER = 249.6075
MEAN_ANOMALY   = 110.1932

EPHEMERIS_TYPE = 0
CLASSIFICATION_TYPE = U
NORAD_CAT_ID   = 28415
ELEMENT_SET_NO = 999
REV_AT_EPOCH   = 18325
BSTAR          = .36105683E-3
MEAN_MOTION_DOT = .10377E-3
MEAN_MOTION_DDOT = 0

CCSDS_OMM_VERS = 2.0
CREATION_DATE  = 
ORIGINATOR     = 

OBJECT_NAME    = CZ-2C R/B
OBJECT_ID      = 2004-046B
CENTER_NAME    = EARTH
REF_FRAME      = TEME
TIME_SYSTEM    = UTC
MEAN_ELEMENT_THEORY = SGP/SGP4

EPOCH          = 2026-03-31T12:03:53.000928
MEAN_MOTION    = 14.27000301
ECCENTRICITY   = .0140619
INCLINATION    = 98.1978
RA_OF_ASC_NODE = 4.1276
ARG_OF_PERICENTER = 90.3664
MEAN_ANOMALY   = 271.3632

EPHEMERIS_TYPE = 0
CLASSIFICATION_TYPE = U
NORAD_CAT_ID   = 28480
ELEMENT_SET_NO = 999
REV_AT_EPOCH   = 11161
BSTAR          = .94841297E-4
MEAN_MOTION_DOT = .216E-5
MEAN_MOTION_DDOT = 0

CCSDS_OMM_VERS = 2.0
CREATION_DATE  = 
ORIGINATOR     = 

OBJECT_NAME    = ARIANE 5 R/B
OBJECT_ID      = 2004-049H
CENTER_NAME    = EARTH
REF_FRAME      = TEME
TIME_SYSTEM    = UTC
MEAN_ELEMENT_THEORY = SGP/SGP4

EPOCH          = 2026-03-31T11:02:00.753216
MEAN_MOTION    = 14.85306977
ECCENTRICITY   = .0082885
INCLINATION    = 98.2658
RA_OF_ASC_NODE = 259.7367
ARG_OF_PERICENTER = 280.6849
MEAN_ANOMALY   = 78.5040

EPHEMERIS_TYPE = 0
CLASSIFICATION_TYPE = U
NORAD_CAT_ID   = 28499
ELEMENT_SET_NO = 999
REV_AT_EPOCH   = 14902
BSTAR          = .1367E-3
MEAN_MOTION_DOT = .1183E-4
MEAN_MOTION_DDOT = 0

CCSDS_OMM_VERS = 2.0
CREATION_DATE  = 
ORIGINATOR     = 

OBJECT_NAME    = CZ-2D R/B
OBJECT_ID      = 2005-024B
CENTER_NAME    = EARTH
REF_FRAME      = TEME
TIME_SYSTEM    = UTC
MEAN_ELEMENT_THEORY = SGP/SGP4

EPOCH          = 2026-03-31T12:04:01.685856
MEAN_MOTION    = 15.62188205
ECCENTRICITY   = .00020227
INCLINATION    = 97.3567
RA_OF_ASC_NODE = 106.4798
ARG_OF_PERICENTER = 318.1451
MEAN_ANOMALY   = 41.9652

EPHEMERIS_TYPE = 0
CLASSIFICATION_TYPE = U
NORAD_CAT_ID   = 28738
ELEMENT_SET_NO = 999
REV_AT_EPOCH   = 14318
BSTAR          = .59899552E-3
MEAN_MOTION_DOT = .52753E-3
MEAN_MOTION_DDOT = 0

CCSDS_OMM_VERS = 2.0
CREATION_DATE  = 
ORIGINATOR     = 

OBJECT_NAME    = ALOS (DAICHI)
OBJECT_ID      = 2006-002A
CENTER_NAME    = EARTH
REF_FRAME      = TEME
TIME_SYSTEM    = UTC
MEAN_ELEMENT_THEORY = SGP/SGP4

EPOCH          = 2026-03-31T08:31:21.179136
MEAN_MOTION    = 14.69877448
ECCENTRICITY   = .0000936
INCLINATION    = 98.1252
RA_OF_ASC_NODE = 46.2078
ARG_OF_PERICENTER = 110.6080
MEAN_ANOMALY   = 249.5226

EPHEMERIS_TYPE = 0
CLASSIFICATION_TYPE = U
NORAD_CAT_ID   = 28931
ELEMENT_SET_NO = 999
REV_AT_EPOCH   = 7666
BSTAR          = .30821572E-3
MEAN_MOTION_DOT = .1794E-4
MEAN_MOTION_DDOT = 0

